CCSDS_OMM_VERS,COMMENT,CREATION_DATE,ORIGINATOR,OBJECT_NAME,OBJECT_ID,CENTER_NAME,REF_FRAME,TIME_SYSTEM,MEAN_ELEMENT_THEORY,EPOCH,MEAN_MOTION,ECCENTRICITY,INCLINATION,RA_OF_ASC_NODE,ARG_OF_PERICENTER,MEAN_ANOMALY,EPHEMERIS_TYPE,CLASSIFICATION_TYPE,NORAD_CAT_ID,ELEMENT_SET_NO,REV_AT_EPOCH,BSTAR,MEAN_MOTION_DOT,MEAN_MOTION_DDOT,SEMIMAJOR_AXIS,PERIOD,APOAPSIS,PERIAPSIS,OBJECT_TYPE,RCS_SIZE,COUNTRY_CODE,LAUNCH_DATE,SITE,DECAY_DATE,FILE,GP_ID,TLE_LINE0,TLE_LINE1,TLE_LINE2
"3.0","GENERATED VIA SPACE-TRACK.ORG API","2025-02-24T15:06:16","18 SPCS","STARLINK-1291","2020-019AK","EARTH","TEME","UTC","SGP4","2025-02-23T20:01:07.490208","16.43063456","0.00117110","53.0335","354.8888","137.5091","315.1982","0","U","45393","999","27338","0.00206960000000","0.55004097","0.0000123160000","6535.803","87.641","165.322","150.014","PAYLOAD","LARGE","US","2020-03-18","AFETR","2025-02-24","4650860","281566660","0 STARLINK-1291","1 45393U 20019AK  25054.83411447  .55004097  12316-4  20696-2 0  9996","2 45393  53.0335 354.8888 0011711 137.5091 315.1982 16.43063456273386"
"3.0","GENERATED VIA SPACE-TRACK.ORG API","2025-02-24T17:11:11","18 SPCS","DELTA 1 DEB","1975-052LG","EARTH","TEME","UTC","SGP4","2025-02-24T00:21:23.809824","15.73969912","0.00147690","99.6827","77.2276","157.7872","202.4027","0","U","35533","999","14112","0.03365500000000","0.05743528","0.0000000000000","6725.701","91.488","357.499","337.633","DEBRIS","SMALL","US","1975-06-12","AFWTR","2025-02-28","4650915","281579445","0 DELTA 1 DEB","1 35533U 75052LG  25055.01485891  .05743528  00000-0  33655-1 0  9998","2 35533  99.6827  77.2276 0014769 157.7872 202.4027 15.73969912141125"
"3.0","GENERATED VIA SPACE-TRACK.ORG API","2025-02-24T17:11:11","18 SPCS","CZ-6A DEB","2022-151HW","EARTH","TEME","UTC","SGP4","2025-02-24T04:30:00.793152","15.68877840","0.00289820","98.9293","148.3842","295.4385","64.3873","0","U","54494","999","4958","0.03183800000000","0.04367505","0.0000000000000","6740.246","91.785","381.646","342.577","DEBRIS","SMALL","PRC","2022-11-11","TSC","2025-02-28","4650915","281589685","0 CZ-6A DEB","1 54494U 22151HW  25055.18750918  .04367505  00000-0  31838-1 0  9997","2 54494  98.9293 148.3842 0028982 295.4385  64.3873 15.68877840 49584"
"3.0","GENERATED VIA SPACE-TRACK.ORG API","2025-02-24T05:56:15","18 SPCS","STARLINK-1391","2020-038W","EARTH","TEME","UTC","SGP4","2025-02-24T05:13:08.675328","16.53084791","0.00109850","53.0362","68.3608","219.3255","225.4729","0","U","45750","999","26120","0.00010000000000","0.15506515","0.0000125830000","6509.362","87.110","138.377","124.076","PAYLOAD","LARGE","US","2020-06-13","AFETR","2025-02-24","4650246","281551638","0 STARLINK-1391","1 45750U 20038W   25055.21746152  .15506515  12583-4  10000-3 0  9994","2 45750  53.0362  68.3608 0010985 219.3255 225.4729 16.53084791261209"
"3.0","GENERATED VIA SPACE-TRACK.ORG API","2025-02-24T08:56:15","18 SPCS","STARLINK-1637","2020-057S","EARTH","TEME","UTC","SGP4","2025-02-24T08:42:16.413408","16.33591677","0.00062430","53.0155","126.8384","357.6470","52.6884","0","U","46133","999","25078","0.00114930000000","0.07717993","0.0000122770000","6561.042","88.149","187.003","178.811","PAYLOAD","LARGE","US","2020-08-18","AFETR","2025-02-24","4650563","281559388","0 STARLINK-1637","1 46133U 20057S   25055.36268997  .07717993  12277-4  11493-2 0  9994","2 46133  53.0155 126.8384 0006243 357.6470  52.6884 16.33591677250780"
"3.0","GENERATED VIA SPACE-TRACK.ORG API","2025-02-24T12:56:15","18 SPCS","STARLINK-1341","2020-025D","EARTH","TEME","UTC","SGP4","2025-02-24T10:30:32.031936","16.30148902","0.00077220","53.0256","312.9274","209.9078","324.9146","0","U","45534","999","26813","0.00089690000000","0.04292105","0.0000120530000","6570.277","88.335","197.215","187.068","PAYLOAD","LARGE","US","2020-04-22","AFETR","2025-02-24","4650568","281559393","0 STARLINK-1341","1 45534U 20025D   25055.43787074  .04292105  12053-4  89690-3 0  9990","2 45534  53.0256 312.9274 0007722 209.9078 324.9146 16.30148902268138"
"3.0","GENERATED VIA SPACE-TRACK.ORG API","2025-02-25T06:56:17","18 SPCS","YODAKA","1998-067XB","EARTH","TEME","UTC","SGP4","2025-02-24T13:40:39.859392","16.30980865","0.00081980","51.6144","133.7689","359.2402","0.8607","0","U","62295","999","1214","0.00151830000000","0.07916730","0.0000122680000","6568.042","88.290","195.292","184.523","PAYLOAD","MEDIUM","JPN","1998-11-20","TTMTR","2025-02-28","4651519","281639625","0 YODAKA","1 62295U 98067XB  25055.56990578  .07916730  12268-4  15183-2 0  9996","2 62295  51.6144 133.7689 0008198 359.2402   0.8607 16.30980865 12140"
"3.0","GENERATED VIA SPACE-TRACK.ORG API","2025-02-24T19:46:17","18 SPCS","STARLINK-2265","2021-024AB","EARTH","TEME","UTC","SGP4","2025-02-24T16:39:17.176320","16.41481802","0.00029190","53.0251","117.6451","330.6802","122.7901","0","U","48002","999","21867","0.00083915000000","0.13835196","0.0000124460000","6540.001","87.726","163.775","159.957","PAYLOAD","LARGE","US","2021-03-24","AFETR","2025-02-25","4650952","281597575","0 STARLINK-2265","1 48002U 21024AB  25055.69394880  .13835196  12446-4  83915-3 0  9993","2 48002  53.0251 117.6451 0002919 330.6802 122.7901 16.41481802218671"
"3.0","GENERATED VIA SPACE-TRACK.ORG API","2025-02-24T19:56:16","18 SPCS","STARLINK-2335","2021-021U","EARTH","TEME","UTC","SGP4","2025-02-24T18:24:44.251776","16.44194757","0.00045350","53.0265","127.1078","231.2136","230.7975","0","U","47878","999","21932","0.00071120000000","0.19845140","0.0000124300000","6532.805","87.581","157.632","151.707","PAYLOAD","LARGE","US","2021-03-14","AFETR","2025-02-25","4650961","281597585","0 STARLINK-2335","1 47878U 21021U   25055.76717884  .19845140  12430-4  71120-3 0  9995","2 47878  53.0265 127.1078 0004535 231.2136 230.7975 16.44194757219326"
"3.0","GENERATED VIA SPACE-TRACK.ORG API","2025-02-25T04:16:25","18 SPCS","CZ-6A DEB","2024-140FQ","EARTH","TEME","UTC","SGP4","2025-02-24T19:39:19.098720","16.26196516","0.00040910","89.0265","327.2652","197.0041","163.1125","0","U","60789","999","2964","0.00630420000000","0.19422112","-0.0000008254100","6580.918","88.550","205.475","200.091","DEBRIS","SMALL","PRC","2024-08-06","TSC","2025-02-28","4651315","281633859","0 CZ-6A DEB","1 60789U 24140FQ  25055.81897105  .19422112 -82541-6  63042-2 0  9993","2 60789  89.0265 327.2652 0004091 197.0041 163.1125 16.26196516 29648"
"3.0","GENERATED VIA SPACE-TRACK.ORG API","2025-02-25T06:26:25","18 SPCS","MINOTAUR 4 DEB","2020-046AJ","EARTH","TEME","UTC","SGP4","2025-02-24T21:18:28.414368","15.69055250","0.00087410","53.9161","113.7937","56.1880","303.9978","0","U","52981","999","16521","0.00393920000000","0.00492692","0.0000000000000","6739.738","91.775","367.494","355.712","DEBRIS","SMALL","US","2020-07-15","WLPIS","2025-03-18","4651353","281636577","0 MINOTAUR 4 DEB","1 52981U 20046AJ  25055.88782887  .00492692  00000-0  39392-2 0  9990","2 52981  53.9161 113.7937 0008741  56.1880 303.9978 15.69055250165213"
"3.0","GENERATED VIA SPACE-TRACK.ORG API","2025-02-25T17:55:50","18 SPCS","MDASAT-1B","2022-002BU","EARTH","TEME","UTC","SGP4","2025-02-24T22:04:54.842880","16.45128402","0.00124830","97.3189","137.9096","268.8482","91.1390","0","U","51050","999","17375","0.00033496000000","0.13701385","0.0000025265000","6530.333","87.531","160.350","144.046","PAYLOAD","SMALL","SAFR","2022-01-13","AFETR","2025-02-28","4652023","281672426","0 MDASAT-1B","1 51050U 22002BU  25055.92007920  .13701385  25265-5  33496-3 0  9994","2 51050  97.3189 137.9096 0012483 268.8482  91.1390 16.45128402173750"
"3.0","GENERATED VIA SPACE-TRACK.ORG API","2025-02-24T23:06:25","18 SPCS","OBJECT A","2024-236A","EARTH","TEME","UTC","SGP4","2025-02-24T22:39:39.627360","16.44675548","0.00101000","58.5193","27.4829","280.8560","115.0565","0","U","62263","999","1284","0.00030193000000","0.10909685","0.0000111390000","6531.531","87.555","159.993","146.800","UNKNOWN","LARGE","IRAN","2024-12-06","SEM","2025-02-25","4651295","281604319","0 OBJECT A","1 62263U 24236A   25055.94420865  .10909685  11139-4  30193-3 0  9997","2 62263  58.5193  27.4829 0010100 280.8560 115.0565 16.44675548 12843"
"3.0","GENERATED VIA SPACE-TRACK.ORG API","2025-02-25T17:55:50","18 SPCS","SL-8 DEB","1972-104D","EARTH","TEME","UTC","SGP4","2025-02-24T23:42:28.464480","16.20673105","0.00074730","74.0533","57.3572","239.1616","120.8899","0","U","6396","999","78129","0.00368670000000","0.07406227","0.0000018833000","6595.862","88.852","222.656","212.798","DEBRIS","SMALL","CIS","1972-12-25","PKMTR","2025-02-28","4652023","281653721","0 SL-8 DEB","1 06396U 72104D   25055.98782945  .07406227  18833-5  36867-2 0  9995","2 06396  74.0533  57.3572 0007473 239.1616 120.8899 16.20673105781291"
"3.0","GENERATED VIA SPACE-TRACK.ORG API","2025-02-25T03:26:17","18 SPCS","STARLINK-2229","2021-024R","EARTH","TEME","UTC","SGP4","2025-02-25T03:02:09.268224","16.49971129","0.00002030","53.0174","109.8274","75.1219","22.0479","0","U","47992","999","21882","0.00034720000000","0.29029499","0.0000126410000","6517.549","87.274","139.546","139.281","PAYLOAD","LARGE","US","2021-03-24","AFETR","2025-02-25","4651311","281605785","0 STARLINK-2229","1 47992U 21024R   25056.12649616  .29029499  12641-4  34720-3 0  9994","2 47992  53.0174 109.8274 0000203  75.1219  22.0479 16.49971129218828"
"3.0","GENERATED VIA SPACE-TRACK.ORG API","2025-02-25T15:46:16","18 SPCS","STARLINK-1378","2020-025T","EARTH","TEME","UTC","SGP4","2025-02-25T10:25:26.040288","16.37409185","0.00071180","53.0240","312.3938","223.0942","306.1564","0","U","45548","999","26822","0.00074662000000","0.07610854","0.0000122120000","6550.841","87.944","177.368","168.043","PAYLOAD","LARGE","US","2020-04-22","AFETR","2025-02-26","4652010","281652179","0 STARLINK-1378","1 45548U 20025T   25056.43432917  .07610854  12212-4  74662-3 0  9997","2 45548  53.0240 312.3938 0007118 223.0942 306.1564 16.37409185268229"
